IRIDIUM 39              
1 25042U 97069D   25057.78365530  .00001589  00000+0  41394-3 0  9996
2 25042  86.3860 258.4654 0016637 321.0493  38.9511 14.48936888432976
IRIDIUM 38              
1 25043U 97069E   25058.15819212  .00001029  00000+0  33445-3 0  9997
2 25043  86.3914 279.4721 0003915  93.0560 267.1085 14.37938629430402
IRIDIUM 42              
1 25077U 97077A   25058.09939915  .00000941  00000+0  31634-3 0  9999
2 25077  86.3926 285.5362 0002665  94.0104 266.1398 14.36188987425398
IRIDIUM 44              
1 25078U 97077B   25057.86433486  .00001075  00000+0  33489-3 0  9995
2 25078  86.3905 267.8323 0003450  61.1585 298.9960 14.40062204427823
IRIDIUM 45              
1 25104U 97082A   25058.17192668  .00027090  00000+0  11024-2 0  9995
2 25104  86.3576 101.1281 0128992  23.9014 336.8141 15.16955113435581
IRIDIUM 24              
1 25105U 97082B   25058.18697602  .00001205  00000+0  36181-3 0  9997
2 25105  86.3918 126.9692 0013570  84.0031 276.2715 14.41914009427610
IRIDIUM 51              
1 25262U 98018A   25058.13999302  .00047665  00000+0  13724-2 0  9995
2 25262  86.3854 109.9547 0100832 311.1429  48.1149 15.30551984430367
IRIDIUM 57              
1 25273U 98019B   25058.06223757  .00001143  00000+0  38905-3 0  9994
2 25273  86.4018 191.3506 0002115  93.6736 266.4702 14.35755872409193
